{"type": "FeatureCollection", "features": [ {"type": "Feature", "properties": {"norad_id": 66899, "name": "STARLINK-36064", "group": "last-30-days", "lat": -41.45012636830746, "lon": -35.852071899957735, "alt_km": 402.64229761680417, "timestamp": "2025-12-26T10:30:48.976115+00:00", "meta": {"OBJECT_NAME": "STARLINK-36064", "OBJECT_ID": "2025-283X", "EPOCH": "2025-12-26T04:00:01.998720", "MEAN_MOTION": 15.57837833, "ECCENTRICITY": 0.0001559, "INCLINATION": 53.1595, "RA_OF_ASC_NODE": 6.9254, "ARG_OF_PERICENTER": 88.4379, "MEAN_ANOMALY": 133.5877, "EPHEMERIS_TYPE": 0, "CLASSIFICATION_TYPE": "U", "NORAD_CAT_ID": 66899, "ELEMENT_SET_NO": 999, "REV_AT_EPOCH": 452, "BSTAR": -0.030101, "MEAN_MOTION_DOT": -0.02002595, "MEAN_MOTION_DDOT": 0}, "tle": {"line1": "1 66899U 25283X   25360.16668980 -.02002595  00000+0 -30101-1 0  9998", "line2": "2 66899  53.1595   6.9254 0001559  88.4379 133.5877 15.57837833  4528"}}, "geometry": {"type": "Point", "coordinates": [-35.852071899957735, -41.45012636830746]}}, {"type": "Feature", "properties": {"norad_id": 66900, "name": "STARLINK-36074", "group": "last-30-days", "lat": -40.28601569707581, "lon": -33.8503849518994, "alt_km": 402.61105921827766, "timestamp": "2025-12-26T10:30:48.976125+00:00", "meta": {"OBJECT_NAME": "STARLINK-36074", "OBJECT_ID": "2025-283Y", "EPOCH": "2025-12-26T04:00:01.998720", "MEAN_MOTION": 15.57833909, "ECCENTRICITY": 0.0001607, "INCLINATION": 53.1593, "RA_OF_ASC_NODE": 6.9212, "ARG_OF_PERICENTER": 89.9764, "MEAN_ANOMALY": 133.9659, "EPHEMERIS_TYPE": 0, "CLASSIFICATION_TYPE": "U", "NORAD_CAT_ID": 66900, "ELEMENT_SET_NO": 999, "REV_AT_EPOCH": 458, "BSTAR": -0.02998, "MEAN_MOTION_DOT": -0.01995308, "MEAN_MOTION_DDOT": 0}, "tle": {"line1": "1 66900U 25283Y   25360.16668980 -.01995308  00000+0 -29980-1 0  9996", "line2": "2 66900  53.1593   6.9212 0001607  89.9764 133.9659 15.57833909  4589"}}, "geometry": {"type": "Point", "coordinates": [-33.8503849518994, -40.28601569707581]}}, {"type": "Feature", "properties": {"norad_id": 66901, "name": "STARLINK-36043", "group": "last-30-days", "lat": -39.086811841005286, "lon": -31.914773524800154, "alt_km": 402.50923698192037, "timestamp": "2025-12-26T10:30:48.976135+00:00", "meta": {"OBJECT_NAME": "STARLINK-36043", "OBJECT_ID": "2025-283Z", "EPOCH": "2025-12-26T04:00:01.998720", "MEAN_MOTION": 15.57844546, "ECCENTRICITY": 0.0001595, "INCLINATION": 53.1593, "RA_OF_ASC_NODE": 6.9169, "ARG_OF_PERICENTER": 88.411, "MEAN_ANOMALY": 137.4442, "EPHEMERIS_TYPE": 0, "CLASSIFICATION_TYPE": "U", "NORAD_CAT_ID": 66901, "ELEMENT_SET_NO": 999, "REV_AT_EPOCH": 458, "BSTAR": -0.030223, "MEAN_MOTION_DOT": -0.02010174, "MEAN_MOTION_DDOT": 0}, "tle": {"line1": "1 66901U 25283Z   25360.16668980 -.02010174  00000+0 -30223-1 0  9999", "line2": "2 66901  53.1593   6.9169 0001595  88.4110 137.4442 15.57844546  4584"}}, "geometry": {"type": "Point", "coordinates": [-31.914773524800154, -39.086811841005286]}}, {"type": "Feature", "properties": {"norad_id": 66902, "name": "STARLINK-35983", "group": "last-30-days", "lat": -37.85821490091803, "lon": -30.04563212472808, "alt_km": 402.42172454796855, "timestamp": "2025-12-26T10:30:48.976145+00:00", "meta": {"OBJECT_NAME": "STARLINK-35983", "OBJECT_ID": "2025-283AA", "EPOCH": "2025-12-26T04:00:01.998720", "MEAN_MOTION": 15.5783827, "ECCENTRICITY": 0.0001534, "INCLINATION": 53.1598, "RA_OF_ASC_NODE": 6.9135, "ARG_OF_PERICENTER": 90.6626, "MEAN_ANOMALY": 137.1109, "EPHEMERIS_TYPE": 0, "CLASSIFICATION_TYPE": "U", "NORAD_CAT_ID": 66902, "ELEMENT_SET_NO": 999, "REV_AT_EPOCH": 458, "BSTAR": -0.030088, "MEAN_MOTION_DOT": -0.0200185, "MEAN_MOTION_DDOT": 0}, "tle": {"line1": "1 66902U 25283AA  25360.16668980 -.02001850  00000+0 -30088-1 0  9990", "line2": "2 66902  53.1598   6.9135 0001534  90.6626 137.1109 15.57838270  4587"}}, "geometry": {"type": "Point", "coordinates": [-30.04563212472808, -37.85821490091803]}}, {"type": "Feature", "properties": {"norad_id": 66903, "name": "STARLINK-36077", "group": "last-30-days", "lat": -36.60066833798618, "lon": -28.239120603903782, "alt_km": 402.3531742805626, "timestamp": "2025-12-26T10:30:48.976155+00:00", "meta": {"OBJECT_NAME": "STARLINK-36077", "OBJECT_ID": "2025-283AB", "EPOCH": "2025-12-26T04:00:01.998720", "MEAN_MOTION": 15.57835521, "ECCENTRICITY": 0.0001562, "INCLINATION": 53.1599, "RA_OF_ASC_NODE": 6.9098, "ARG_OF_PERICENTER": 91.0186, "MEAN_ANOMALY": 138.6717, "EPHEMERIS_TYPE": 0, "CLASSIFICATION_TYPE": "U", "NORAD_CAT_ID": 66903, "ELEMENT_SET_NO": 999, "REV_AT_EPOCH": 458, "BSTAR": -0.029998, "MEAN_MOTION_DOT": -0.01996454, "MEAN_MOTION_DDOT": 0}, "tle": {"line1": "1 66903U 25283AB  25360.16668980 -.01996454  00000+0 -29998-1 0  9991", "line2": "2 66903  53.1599   6.9098 0001562  91.0186 138.6717 15.57835521  4581"}}, "geometry": {"type": "Point", "coordinates": [-28.239120603903782, -36.60066833798618]}}, {"type": "Feature", "properties": {"norad_id": 66904, "name": "STARLINK-36059", "group": "last-30-days", "lat": -35.3155396427349, "lon": -26.491172805755298, "alt_km": 402.25270566944073, "timestamp": "2025-12-26T10:30:48.976165+00:00", "meta": {"OBJECT_NAME": "STARLINK-36059", "OBJECT_ID": "2025-283AC", "EPOCH": "2025-12-26T04:00:01.998720", "MEAN_MOTION": 15.57834894, "ECCENTRICITY": 0.0001507, "INCLINATION": 53.1596, "RA_OF_ASC_NODE": 6.9053, "ARG_OF_PERICENTER": 92.6853, "MEAN_ANOMALY": 138.9216, "EPHEMERIS_TYPE": 0, "CLASSIFICATION_TYPE": "U", "NORAD_CAT_ID": 66904, "ELEMENT_SET_NO": 999, "REV_AT_EPOCH": 458, "BSTAR": -0.029989, "MEAN_MOTION_DOT": -0.01995839, "MEAN_MOTION_DDOT": 0}, "tle": {"line1": "1 66904U 25283AC  25360.16668980 -.01995839  00000+0 -29989-1 0  9998", "line2": "2 66904  53.1596   6.9053 0001507  92.6853 138.9216 15.57834894  4586"}}, "geometry": {"type": "Point", "coordinates": [-26.491172805755298, -35.3155396427349]}}, {"type": "Feature", "properties": {"norad_id": 66905, "name": "STARLINK-36075", "group": "last-30-days", "lat": -34.00472048337332, "lon": -24.795400896087358, "alt_km": 402.1404010948845, "timestamp": "2025-12-26T10:30:48.976175+00:00", "meta": {"OBJECT_NAME": "STARLINK-36075", "OBJECT_ID": "2025-283AD", "EPOCH": "2025-12-26T04:00:01.998720", "MEAN_MOTION": 15.57845538, "ECCENTRICITY": 0.0001536, "INCLINATION": 53.1598, "RA_OF_ASC_NODE": 6.9018, "ARG_OF_PERICENTER": 89.7701, "MEAN_ANOMALY": 143.7517, "EPHEMERIS_TYPE": 0, "CLASSIFICATION_TYPE": "U", "NORAD_CAT_ID": 66905, "ELEMENT_SET_NO": 999, "REV_AT_EPOCH": 458, "BSTAR": -0.030259, "MEAN_MOTION_DOT": -0.02012258, "MEAN_MOTION_DDOT": 0}, "tle": {"line1": "1 66905U 25283AD  25360.16668980 -.02012258  00000+0 -30259-1 0  9997", "line2": "2 66905  53.1598   6.9018 0001536  89.7701 143.7517 15.57845538  4586"}}, "geometry": {"type": "Point", "coordinates": [-24.795400896087358, -34.00472048337332]}}, {"type": "Feature", "properties": {"norad_id": 66906, "name": "1998-067XS", "group": "last-30-days", "lat": -51.57984170809516, "lon": -12.783998599027864, "alt_km": 415.66458866347875, "timestamp": "2025-12-26T10:30:48.976186+00:00", "meta": {"OBJECT_NAME": "1998-067XS", "OBJECT_ID": "1998-067XS", "EPOCH": "2025-12-25T11:42:06.367680", "MEAN_MOTION": 15.51255627, "ECCENTRICITY": 0.0002728, "INCLINATION": 51.6324, "RA_OF_ASC_NODE": 79.1676, "ARG_OF_PERICENTER": 267.8022, "MEAN_ANOMALY": 92.2655, "EPHEMERIS_TYPE": 0, "CLASSIFICATION_TYPE": "U", "NORAD_CAT_ID": 66906, "ELEMENT_SET_NO": 999, "REV_AT_EPOCH": 359, "BSTAR": 0.00047654, "MEAN_MOTION_DOT": 0.00028077, "MEAN_MOTION_DDOT": 0}, "tle": {"line1": "1 66906U 98067XS  25359.48757370  .00028077  00000+0  47654-3 0  9994", "line2": "2 66906  51.6324  79.1676 0002728 267.8022  92.2655 15.51255627  3597"}}, "geometry": {"type": "Point", "coordinates": [-12.783998599027864, -51.57984170809516]}}, {"type": "Feature", "properties": {"norad_id": 66907, "name": "1998-067XT", "group": "last-30-days", "lat": -4.940742199210102, "lon": 70.34595408766378, "alt_km": 407.15044639570897, "timestamp": "2025-12-26T10:30:48.976198+00:00", "meta": {"OBJECT_NAME": "1998-067XT", "OBJECT_ID": "1998-067XT", "EPOCH": "2025-12-24T10:39:56.166048", "MEAN_MOTION": 15.52879993, "ECCENTRICITY": 0.00038856, "INCLINATION": 51.6313, "RA_OF_ASC_NODE": 84.2012, "ARG_OF_PERICENTER": 298.2919, "MEAN_ANOMALY": 61.7678, "EPHEMERIS_TYPE": 0, "CLASSIFICATION_TYPE": "U", "NORAD_CAT_ID": 66907, "ELEMENT_SET_NO": 999, "REV_AT_EPOCH": 343, "BSTAR": 0.0010726177, "MEAN_MOTION_DOT": 0.00067981, "MEAN_MOTION_DDOT": 0}, "tle": {"line1": "1 66907U 98067XT  25358.44440007  .00067981  00000+0  10726-2 0  9992", "line2": "2 66907  51.6313  84.2012 0003885 298.2919  61.7678 15.52879993  3433"}}, "geometry": {"type": "Point", "coordinates": [70.34595408766378, -4.940742199210102]}}, {"type": "Feature", "properties": {"norad_id": 66908, "name": "1998-067XU", "group": "last-30-days", "lat": 0.18550459539984615, "lon": 74.40610072529576, "alt_km": 406.5291440388246, "timestamp": "2025-12-26T10:30:48.976209+00:00", "meta": {"OBJECT_NAME": "1998-067XU", "OBJECT_ID": "1998-067XU", "EPOCH": "2025-12-24T10:38:25.805472", "MEAN_MOTION": 15.52977314, "ECCENTRICITY": 0.00038638, "INCLINATION": 51.6323, "RA_OF_ASC_NODE": 84.1936, "ARG_OF_PERICENTER": 296.7785, "MEAN_ANOMALY": 63.2809, "EPHEMERIS_TYPE": 0, "CLASSIFICATION_TYPE": "U", "NORAD_CAT_ID": 66908, "ELEMENT_SET_NO": 999, "REV_AT_EPOCH": 343, "BSTAR": 0.0010585814, "MEAN_MOTION_DOT": 0.00067317, "MEAN_MOTION_DDOT": 0}, "tle": {"line1": "1 66908U 98067XU  25358.44335423  .00067317  00000+0  10586-2 0  9995", "line2": "2 66908  51.6323  84.1936 0003863 296.7785  63.2809 15.52977314  3438"}}, "geometry": {"type": "Point", "coordinates": [74.40610072529576, 0.18550459539984615]}}]}